{"type":"FeatureCollection","features":[{"type":"Feature","id":"640086-1","geometry":{"type":"Point","coordinates":[14.4177999,46.0237416]},"properties":{"transactionId":"640086","address":"PODPEŠKA CESTA 1 BREZOVICA PRI LJUBLJANI","contractRentEur":1232.32}},{"type":"Feature","id":"977747-1","geometry":{"type":"Point","coordinates":[14.4280829,46.025661]},"properties":{"transactionId":"977747","address":"POT TERENCEV 1 BREZOVICA PRI LJUBLJANI","contractRentEur":1100.4}},{"type":"Feature","id":"977748-1","geometry":{"type":"Point","coordinates":[14.416342,46.0228587]},"properties":{"transactionId":"977748","address":"PODPEŠKA CESTA 10 BREZOVICA PRI LJUBLJANI","contractRentEur":6384.0}},{"type":"Feature","id":"977759-1","geometry":{"type":"Point","coordinates":[14.4272897,46.0253114]},"properties":{"transactionId":"977759","address":"TRŽAŠKA CESTA 453a BREZOVICA PRI LJUBLJANI","contractRentEur":700.0}},{"type":"Feature","id":"977760-1","geometry":{"type":"Point","coordinates":[14.4131394,46.0150345]},"properties":{"transactionId":"977760","address":"NA LAZIH 4A BREZOVICA PRI LJUBLJANI","contractRentEur":400.0}},{"type":"Feature","id":"981844-1","geometry":{"type":"Point","coordinates":[14.4194659,45.9559181]},"properties":{"transactionId":"981844","address":"38b PRESERJE","contractRentEur":416.0}},{"type":"Feature","id":"984484-1","geometry":{"type":"Point","coordinates":[14.4081702,45.9957917]},"properties":{"transactionId":"984484","address":"GMAJNA 7 NOTRANJE GORICE","contractRentEur":2254.41}},{"type":"Feature","id":"984484-2","geometry":{"type":"Point","coordinates":[14.4081702,45.9957917]},"properties":{"transactionId":"984484","address":"GMAJNA 7 NOTRANJE GORICE","contractRentEur":2254.41}},{"type":"Feature","id":"984484-3","geometry":{"type":"Point","coordinates":[14.4081702,45.9957917]},"properties":{"transactionId":"984484","address":"GMAJNA 7 NOTRANJE GORICE","contractRentEur":2254.41}},{"type":"Feature","id":"984485-1","geometry":{"type":"Point","coordinates":[14.4081702,45.9957917]},"properties":{"transactionId":"984485","address":"GMAJNA 7 NOTRANJE GORICE","contractRentEur":2254.41}},{"type":"Feature","id":"984485-2","geometry":{"type":"Point","coordinates":[14.4081702,45.9957917]},"properties":{"transactionId":"984485","address":"GMAJNA 7 NOTRANJE GORICE","contractRentEur":2254.41}},{"type":"Feature","id":"984485-3","geometry":{"type":"Point","coordinates":[14.4081702,45.9957917]},"properties":{"transactionId":"984485","address":"GMAJNA 7 NOTRANJE GORICE","contractRentEur":2254.41}},{"type":"Feature","id":"984486-1","geometry":{"type":"Point","coordinates":[14.4081702,45.9957917]},"properties":{"transactionId":"984486","address":"Gmajna 7 Notranje Gorice","contractRentEur":2365.1}},{"type":"Feature","id":"984486-2","geometry":{"type":"Point","coordinates":[14.4081702,45.9957917]},"properties":{"transactionId":"984486","address":"Gmajna 7 Notranje Gorice","contractRentEur":2365.1}},{"type":"Feature","id":"984486-3","geometry":{"type":"Point","coordinates":[14.4081702,45.9957917]},"properties":{"transactionId":"984486","address":"Gmajna 7 Notranje Gorice","contractRentEur":2365.1}},{"type":"Feature","id":"984487-1","geometry":{"type":"Point","coordinates":[14.4081702,45.9957917]},"properties":{"transactionId":"984487","address":"Gmajna 7 Notranje Gorice","contractRentEur":1498.74}},{"type":"Feature","id":"984487-2","geometry":{"type":"Point","coordinates":[14.4081702,45.9957917]},"properties":{"transactionId":"984487","address":"Gmajna 7 Notranje Gorice","contractRentEur":1498.74}},{"type":"Feature","id":"991018-1","geometry":{"type":"Point","coordinates":[14.418649,46.0033909]},"properties":{"transactionId":"991018","address":"Požarnice 54 Vnanje Gorice","contractRentEur":330.0}},{"type":"Feature","id":"991443-1","geometry":{"type":"Point","coordinates":[14.4177999,46.0237416]},"properties":{"transactionId":"991443","address":"PODPEŠKA CESTA 1 BREZOVICA PRI LJUBLJANI","contractRentEur":1647.8}},{"type":"Feature","id":"991443-2","geometry":{"type":"Point","coordinates":[14.4177999,46.0237416]},"properties":{"transactionId":"991443","address":"PODPEŠKA CESTA 1 BREZOVICA PRI LJUBLJANI","contractRentEur":1647.8}},{"type":"Feature","id":"991443-3","geometry":{"type":"Point","coordinates":[14.4177999,46.0237416]},"properties":{"transactionId":"991443","address":"PODPEŠKA CESTA 1 BREZOVICA PRI LJUBLJANI","contractRentEur":1647.8}},{"type":"Feature","id":"991443-4","geometry":{"type":"Point","coordinates":[14.4177999,46.0237416]},"properties":{"transactionId":"991443","address":"PODPEŠKA CESTA 1 BREZOVICA PRI LJUBLJANI","contractRentEur":1647.8}},{"type":"Feature","id":"991444-1","geometry":{"type":"Point","coordinates":[14.4177999,46.0237416]},"properties":{"transactionId":"991444","address":"PODPEŠKA CESTA 1 BREZOVICA PRI LJUBLJANI","contractRentEur":1457.81}},{"type":"Feature","id":"991444-2","geometry":{"type":"Point","coordinates":[14.4177999,46.0237416]},"properties":{"transactionId":"991444","address":"PODPEŠKA CESTA 1 BREZOVICA PRI LJUBLJANI","contractRentEur":1457.81}},{"type":"Feature","id":"991445-1","geometry":{"type":"Point","coordinates":[14.4177999,46.0237416]},"properties":{"transactionId":"991445","address":"PODPEŠKA CESTA 1 BREZOVICA PRI LJUBLJANI","contractRentEur":1578.14}},{"type":"Feature","id":"991445-2","geometry":{"type":"Point","coordinates":[14.4177999,46.0237416]},"properties":{"transactionId":"991445","address":"PODPEŠKA CESTA 1 BREZOVICA PRI LJUBLJANI","contractRentEur":1578.14}},{"type":"Feature","id":"991446-1","geometry":{"type":"Point","coordinates":[14.4177999,46.0237416]},"properties":{"transactionId":"991446","address":"PODPEŠKA CESTA 1 BREZOVICA PRI LJUBLJANI","contractRentEur":1269.11}},{"type":"Feature","id":"991721-1","geometry":{"type":"Point","coordinates":[14.4177999,46.0237416]},"properties":{"transactionId":"991721","address":"PODPEŠKA CESTA 1 BREZOVICA PRI LJUBLJANI","contractRentEur":389.37}},{"type":"Feature","id":"991723-1","geometry":{"type":"Point","coordinates":[14.418649,46.0033909]},"properties":{"transactionId":"991723","address":"Požarnice 54 Vnanje Gorice","contractRentEur":500.0}},{"type":"Feature","id":"991724-1","geometry":{"type":"Point","coordinates":[14.418649,46.0033909]},"properties":{"transactionId":"991724","address":"Požarnice 54 Vnanje Gorice","contractRentEur":500.0}},{"type":"Feature","id":"991725-1","geometry":{"type":"Point","coordinates":[14.418649,46.0033909]},"properties":{"transactionId":"991725","address":"Požarnice 54 Vnanje Gorice","contractRentEur":470.0}},{"type":"Feature","id":"991726-1","geometry":{"type":"Point","coordinates":[14.418649,46.0033909]},"properties":{"transactionId":"991726","address":"Požarnice 54 Vnanje Gorice","contractRentEur":500.0}},{"type":"Feature","id":"991727-1","geometry":{"type":"Point","coordinates":[14.418649,46.0033909]},"properties":{"transactionId":"991727","address":"Požarnice 54 Vnanje Gorice","contractRentEur":700.0}}]}