{"type":"FeatureCollection","features":[{"type":"Feature","id":"100100000276172159","geometry":{"type":"Polygon","coordinates":[[[14.445343163560832,45.97540643988288],[14.44535869753902,45.97538869983466],[14.445628877296413,45.97522553286664],[14.445830758311649,45.97492310963985],[14.445867239192124,45.974758898599234],[14.446135736916167,45.97449215875593],[14.44624950857536,45.97441928887162],[14.446283043130842,45.974408114257336],[14.446403540938704,45.974476090785515],[14.446491741709623,45.97434038283163],[14.446452300144166,45.97432273626096],[14.44635054147222,45.9742131912229],[14.446339503860598,45.97424597934942],[14.446338212949257,45.97433666989559],[14.446218600560774,45.974425887377514],[14.445973217331296,45.97453590960175],[14.445773708479221,45.9747430589856],[14.445741974956812,45.974909992330474],[14.445575139989606,45.97517911399449],[14.445269995809547,45.97541904143131],[14.445179424069154,45.97557201248484],[14.44492996019485,45.975844331077674],[14.444787458265221,45.97591193136973],[14.444608452675105,45.976145541528716],[14.444641052863602,45.97616342541517],[14.44476879411075,45.975997498758176],[14.444832378722051,45.97592375662336],[14.444883232885964,45.97589710054319],[14.444953853229139,45.97586829101818],[14.445247924916382,45.97556154778773],[14.445343163560832,45.97540643988288]]]},"properties":{"eidParcel":"100100000276172159","parcelNumber":"2790","cadastralMunicipalityCode":"1702","areaM2":1654.0,"plannedUsePrimary":"najboljša kmetijska zemljišča","generalisedValueTotalEur":null}}]}